No,NOMBRE,PROPIETARI,MUNICIPIO,DEPARTAMEN,DIRECCION,PAIS,result_num,status,formatted_,place_id,location_t,latlong
"1",EDS GNV M�BIL KENNEDY,GAS NATURAL SA,BOGOT�,CUNDINAMARCA,CARRERA 79 No. 41F-24 SUR,COLOMBIA,"0",OK,"24 Sur, Cra. 79 #41 F, Kennedy, Bogotá, Colombia",ChIJpVBpFYWeP44R6bTEfSA1foE,ROOFTOP,"4.6199348,-74.1608351"
"3",TERPEL-AVENIDA CIUDAD DE CALI,IMPORTACIONES DOBERMAN LTDA,BOGOT�,CUNDINAMARCA,AV. CRA. 95 NO. 15A-62,COLOMBIA,"0",OK,"Cl. 62 #15-83, Bogotá, Colombia",ChIJJ5qvikiaP44RILhyXJo0HzU,ROOFTOP,"4.6490434,-74.066693"
"5",EDS GNV M�BIL LA TEXANA,UNIGAS S.A.S.,BOGOT�,CUNDINAMARCA,AUTOPISTA NORTE NO. 193-50/ Autopista Norte No. 192 - 18/30 o AK 45 192-18/30,COLOMBIA,"0",OK,"Autopista Nte., Colombia",ChIJp9zedZqFP44Rfh_d0tgPlYQ,GEOMETRIC_CENTER,"4.7688644,-74.04384089999999"
"8",EDS GAZELTERPEL PASADENA,GERMAN RODRIGUEZ_GAZEL,BOGOT�,CUNDINAMARCA,CALLE 100 NO. 50 - 38 ESQUINA,COLOMBIA,"0",OK,"Ac. 100 #50-38, Bogotá, Colombia",EiFBYy4gMTAwICM1MC0zOCwgQm9nb3TDoSwgQ29sb21iaWEiGhIYChQKEgn3ZBdXwpo_jhHcEUQ7xIqiERAm,RANGE_INTERPOLATED,"4.6883526,-74.0621242"
"9",EDS GAZEL CATAM TERPEL DORADO,INVERSIONES EN COMBUSTIBLES Y,BOGOT�,CUNDINAMARCA,CALLE 23 B # 123 A - 1,COLOMBIA,"0",OK,"Cl. 23b #123a-1, Bogotá, Colombia",EiJDbC4gMjNiICMxMjNhLTEsIEJvZ290w6EsIENvbG9tYmlhIhoSGAoUChIJS-z_wcacP44RuRrlOzJwMu8QAQ,RANGE_INTERPOLATED,"4.69442,-74.15131869999999"
"12",EDS GNV ESSO AV.68,GAS NATURAL SA,BOGOT�,CUNDINAMARCA,AVENIDA CARRERA 68 No. 20-55 SUR,COLOMBIA,"0",OK,"Ak 68 #20-55, Bogotá, Colombia",Eh9BayA2OCAjMjAtNTUsIEJvZ290w6EsIENvbG9tYmlhIhoSGAoUChIJ11knmO2bP44RAcHFuuTwUTIQNw,RANGE_INTERPOLATED,"4.644436799999999,-74.11095379999999"
"21",EDS GNV - SEDETRASN S.A. SERVICIOS ESPECIALIADOS DE TRAN,SEDETRASN S.A.,BOGOT�,CUNDINAMARCA,CARRERA 110 NO.79-21,COLOMBIA,"0",OK,"Cra. 110 #79-21, Bogotá, Colombia",EiJDcmEuIDExMCAjNzktMjEsIEJvZ290w6EsIENvbG9tYmlhIhoSGAoUChIJ7RNIyqiEP44Ry_Spm5U53pkQFQ,RANGE_INTERPOLATED,"4.7163786,-74.1185433"
"29",EDS HERGOS,GAS NATURAL FENOSA,BOGOT�,CUNDINAMARCA,CALLE 73 NO. 86-06,COLOMBIA,"0",OK,"Cl. 73 #86-6, Bogotá, Colombia",Eh9DbC4gNzMgIzg2LTYsIEJvZ290w6EsIENvbG9tYmlhIhoSGAoUChIJJ-8toUibP44R3tsxR5iAY4YQBg,RANGE_INTERPOLATED,"4.6974716,-74.1051705"
"49",EDS GAZEL VILLA ALSACIA,ORGANIZACI�N TERPEL S.A.,BOGOT�,CUNDINAMARCA,CRA 72 A NO. 12 A - 80,COLOMBIA,"0",OK,"Cundinamarca, Colombia",ChIJK68WFusoP44R7QjR-rW8PJM,APPROXIMATE,"5.026002999999999,-74.0300122"
"62",EDS GAZEL LAS VILLAS,CARLOS ROMERO DUE�AS_GAZEL,BOGOT�,CUNDINAMARCA,CARRERA 52 NO. 129 - 28,COLOMBIA,"0",OK,"Cra. 52 ##129-35, Bogotá, Cundinamarca, Colombia",ChIJBXczf0-FP44RaQ2ddy3HWP0,ROOFTOP,"4.7160949,-74.05845939999999"
"64",EDS COMPADICOM TEXACO 68,GAS NATURAL FENOSA,BOGOT�,CUNDINAMARCA,CARRERA 68 NO. 2C - 84,COLOMBIA,"0",OK,"Ak 68 #2c84, Bogotá, Cundinamarca, Colombia",ChIJG_6jU6ueP44RG8pNrbLGAWo,ROOFTOP,"4.623373,-74.1242054"
"66",TEXACO CIUDAD BOLIVAR,GAS NATURAL FENOSA,BOGOT�,CUNDINAMARCA,"DIAG. 61 SUR NO. 22 - 36 - DIAGONAL 62 SUR N 21� - 36 BARRIO SAN FRANCISCO,",COLOMBIA,"0",OK,"Dg. 62 Sur #22-36 N 21� - 36, Bogotá, Colombia",EjFEZy4gNjIgU3VyICMyMi0zNiBOIDIx77-9IC0gMzYsIEJvZ290w6EsIENvbG9tYmlhIiwaKgoaEhgKFAoSCYNA0_dAnz-OEUlbb6ZQXjS9ECQSDE4gMjHvv70gLSAzNg,RANGE_INTERPOLATED,"4.5669143,-74.14452779999999"
"74",MOBIL TIMIZA,COMBUSTIBLES Y  SERVICIOS,BOGOT�,CUNDINAMARCA,CARRERA 73 NO. 36 A - 55 SUR,COLOMBIA,"0",OK,"Cra. 73 #36A-55, Kennedy, Bogotá, Colombia",ChIJiTuaSb2eP44RVCmEXVB5WDA,ROOFTOP,"4.618077599999999,-74.1461672"
"76",EDS GAZEL TERPEL LA JUANA,ORGANIZACI�N TERPEL S.A.,BOGOT�,CUNDINAMARCA,AVENIDA 7 NO. 155 A - 71,COLOMBIA,"0",OK,"Cl. 155a #7-1 7, Bogotá, Colombia",EiJDbC4gMTU1YSAjNy0xIDcsIEJvZ290w6EsIENvbG9tYmlhIiEaHwoaEhgKFAoSCYOSNleJjz-OEXh0l98XolJ6EAESATc,RANGE_INTERPOLATED,"4.7305971,-74.0246489"
"95",EDS BRIO EL MOCHUELO,INVERSIONES EL MOCHUELO S.A.,BOGOT�,CUNDINAMARCA,AVENIDA CRA 9 No 103-39,COLOMBIA,"0",OK,"Ak. 9 #103-39, Bogotá, Colombia",EiBBay4gOSAjMTAzLTM5LCBCb2dvdMOhLCBDb2xvbWJpYSIaEhgKFAoSCTV2OnS9mj-OEd98yLQaANUuECc,RANGE_INTERPOLATED,"4.6868511,-74.0445491"
"97",EDS GAZEL TEXACO 8,COMBUSTIBLES DE COLOMBIA S.A.,BOGOT�,CUNDINAMARCA,CARRERA 7 NO. 51 - 28,COLOMBIA,"0",OK,"Cra. 7 #51-28, Bogotá, Colombia",ChIJ64jBwzqaP44RMek42pPEu9E,ROOFTOP,"4.637533299999999,-74.0631334"
"98",EDS GAZEL TEXACO 30,COMBUSTIBLES DE COLOMBIA S.A.,BOGOT�,CUNDINAMARCA,AV. EL DORADO NO. 66 - 28,COLOMBIA,"0",OK,"Av. El Dorado #66-28, Bogotá, Colombia",EidBdi4gRWwgRG9yYWRvICM2Ni0yOCwgQm9nb3TDoSwgQ29sb21iaWEiGhIYChQKEgkrGKJ3lZs_jhFVbh6KQ6WkGBAc,RANGE_INTERPOLATED,"4.6497518,-74.1014028"
"99",EDS TERCER MILENIO,GAS VEHICULAR COMPRIMIDO DE,BOGOT�,CUNDINAMARCA,AVENIDA CARACAS NO. 2 - 34,COLOMBIA,"0",OK,"Av. Caracas #2-34, Bogotá, Colombia",ChIJh62V4xyZP44R8xmj4KdYfpY,ROOFTOP,"4.5900133,-74.0906991"
"103",GNV 1GAS,INSETRANSA,BOGOT�,CUNDINAMARCA,AV. CALI NO. 13C - 51,COLOMBIA,"0",OK,"Ak. 86 #13C-51, Bogotá, Colombia",ChIJ7f37F2-cP44R9135uEkEIlY,ROOFTOP,"4.6564926,-74.1399612"
"107",TEXACO CALLE 153,COMBUSTIBLES CAPITAL,BOGOT�,CUNDINAMARCA,CARRERA 7 CON CALLLE 153,COLOMBIA,"0",OK,"Cra. 7 ##153-8, Bogotá, Cundinamarca, Colombia",ChIJU9vAeIuPP44Rps9XwB9zrWg,ROOFTOP,"4.7285374,-74.0240532"
"108",AVENIDA BOYACA,GAS NATURAL VEHICULAR SAN,BOGOT�,CUNDINAMARCA,CALLE 36 SUR NO. 70B - 70,COLOMBIA,"0",OK,"Cl. 36 Sur ###70b 57, Bogotá, Colombia",ChIJRUWprZufP44RgsWLPK1H2gg,ROOFTOP,"4.614814099999999,-74.1397776"
"109",AUTO SUR,GAS NATURAL VEHICULAR SAN,BOGOT�,CUNDINAMARCA,AUTOPISTA SUR NO. 32 - 84,COLOMBIA,"0",OK,"Autopista Sur #32-84, Soacha, Cundinamarca, Colombia",EjRBdXRvcGlzdGEgU3VyICMzMi04NCwgU29hY2hhLCBDdW5kaW5hbWFyY2EsIENvbG9tYmlhIhoSGAoUChIJi7gY9syfP44RrVwtZNA2RX0QVA,RANGE_INTERPOLATED,"4.5869747,-74.2023526"
"111",EDS UNOGAS,COPEC Y  CIA LTDA,BOGOT�,CUNDINAMARCA,AV. 27 NO. 30 - 06 SUR,COLOMBIA,"0",OK,"Bogota, Colombia",ChIJKcumLf2bP44RFDmjIFVjnSM,APPROXIMATE,"4.710988599999999,-74.072092"
"115",EDS LAS VEGAS,ORGANIZACI�N TERPEL S.A.,BOGOT�,CUNDINAMARCA,CARRERA 51 NO. 58D - 17 SUR,COLOMBIA,"0",OK,"Cra. 51, Barrios Unidos, Bogotá, Colombia",ChIJm8ghkf-aP44RNRtSVBSWP1Y,GEOMETRIC_CENTER,"4.6673915,-74.0754797"
"118",EDS GAZEL COLON,ORGANIZACI�N TERPEL S.A.,BOGOT�,CUNDINAMARCA,CALLE 13 NO. 55 - 14,COLOMBIA,"0",OK,"Cl. 12b #71D7, Bogotá, Cundinamarca, Colombia",ChIJRwe7HKeZP44RxqchzdrWs9Y,ROOFTOP,"4.600036999999999,-74.074383"
"129",EDS TERPEL PALOQUEMAO,JAIRO ARMANDO LOVERA CAMPOS,BOGOT�,CUNDINAMARCA,CARRERA 34 NO. 18A - 38,COLOMBIA,"0",OK,"Cra. 34 #18-31, Puente Aranda, Bogotá, Colombia",ChIJhcBIYmSZP44Rg8FVLITKJFE,ROOFTOP,"4.6216129,-74.0921073"
"131",AUTOSERVICIO AV. TERCERA,DISCARBURANTES LTDA,BOGOT�,CUNDINAMARCA,AV. CALLE 3 NO. 34 A - 82,COLOMBIA,"0",OK,"Ac. 3 #34A-82, Puente Aranda, Bogotá, Colombia",ChIJOe5-rECZP44R77R6VNXuKzE,ROOFTOP,"4.6078892,-74.10617950000001"
"132",EDS TERPEL TRINIDAD,ORGANIZACI�N TERPEL S.A.,BOGOT�,CUNDINAMARCA,AV. 68 NO. 2C - 30,COLOMBIA,"0",OK,"Ak 68 ##68b-31, Bogotá, Cundinamarca, Colombia",ChIJJW78ksmeP44RyInWXSFBgU8,ROOFTOP,"4.672768899999999,-74.0894253"
"138",EDS SHELL BALUARTE,VANNET S.A,BOGOT�,CUNDINAMARCA,TRANSVERSAL 72 NO. 35 - 09 SUR,COLOMBIA,"0",OK,"Tv. 72, Kennedy, Bogotá, Colombia",ChIJe4DAn92eP44RRLXQ4jnjXHk,GEOMETRIC_CENTER,"4.595943800000001,-74.14612430000001"
"142",EDS PASTRANITA GNV,PROCOLGAS GNV S.A,BOGOT�,CUNDINAMARCA,AVENIDA 1 MAYO NO. 79 - 25,COLOMBIA,"0",OK,"Av. 1 de Mayo #79g9, Bogotá, Colombia",ChIJUSrP1mOeP44Rfp2o2QkOuQQ,ROOFTOP,"4.614414099999999,-74.1743159"
"148",EDS TEXACO 27,SODEN LTDA,BOGOT�,CUNDINAMARCA,AVENIDA 57 NO. 71 - 14,COLOMBIA,"0",OK,"Cl. 57 #71, Bogotá, Colombia",ChIJvyV21TmaP44RNp8mRAwZ5AA,ROOFTOP,"4.643861999999999,-74.065201"
"150",EDS PUENTE AEREO,ESTANDAR ENERGY  COMPANY  S.A.,BOGOT�,CUNDINAMARCA,AVENIDA EL DORADO NO. 97 - 50,COLOMBIA,"0",OK,"Av. El Dorado ##100-97, Bogotá, Cundinamarca, Colombia",ChIJ63AKEaKcP44RKI2dqhzpPeQ,ROOFTOP,"4.6882348,-74.1305405"
"151",EDS SEVILLANA,IMPORTACIONES DOBERMAN LTDA,BOGOT�,CUNDINAMARCA,AC 45 A SUR NO. 59A-35,COLOMBIA,"0",OK,"Ac. 45a Sur #59, Bogotá, Colombia",ChIJxVmlatqeP44RT2Uf5XquFck,ROOFTOP,"4.594603,-74.1371659"
"152",EDS TEXACO 4,ORGANIZACI�N TERPEL S.A.,BOGOT�,CUNDINAMARCA,CARRERA 30 NO. 4 - 51,COLOMBIA,"0",OK,"Ak 30 #4, Bogotá, Colombia",ChIJGc2MmDyZP44RGDbATRPkUVo,ROOFTOP,"4.5989129,-74.105858"
"158",EDS AVENIDA CHILE,GAS NATURAL FENOSA,BOGOT�,CUNDINAMARCA,CARRERA 91A NO. 72 - 26,COLOMBIA,"0",OK,"Cra. 91a #72-26, Bogotá, Colombia",ChIJbZqPpE-bP44Rlw0nhgRQbYA,ROOFTOP,"4.6991458,-74.1100057"
"161",EDS GARROLLANTAS,ORGANIZACI�N TERPEL S.A.,BOGOT�,CUNDINAMARCA,AVENIDA 1 NO. 24 -08,COLOMBIA,"0",OK,"Av. 1 de Mayo ##24 D-57, Bogotá, Colombia",ChIJ8cVCzNiYP44RJVe8Z_adk6o,ROOFTOP,"4.585998,-74.1066148"
"169",EDS LA EUROPA,GRUPO LOMA LTDA,BOGOT�,CUNDINAMARCA,AVENIDA BOYAC� NO. 68B - 72,COLOMBIA,"0",OK,"Av. Boyacá #68b-72, Bogotá, Colombia",EiZBdi4gQm95YWPDoSAjNjhiLTcyLCBCb2dvdMOhLCBDb2xvbWJpYSIaEhgKFAoSCW1jQmAUmz-OEcl4UD5KltnKEEg,RANGE_INTERPOLATED,"4.6834639,-74.0971919"
"171",EDS BRIOGAS SUBA,BRIOGAS S.A.,BOGOT�,CUNDINAMARCA,CALLE 145 NO. 94D-90,COLOMBIA,"0",OK,"Cl. 145 #94d-90, Bogotá, Colombia",EiJDbC4gMTQ1ICM5NGQtOTAsIEJvZ290w6EsIENvbG9tYmlhIhoSGAoUChIJkTTTcPqEP44Roc-pWLGtjxMQWg,RANGE_INTERPOLATED,"4.740278099999999,-74.08849289999999"
"172",EDS QUIROGA,EXXON MOBIL COLOMBIA - AUTOMARKET,BOGOT�,CUNDINAMARCA,AVENIDA CARACAS NO. 27 - 25 SUR,COLOMBIA,"0",OK,"Av. Caracas #27-61, Bogotá, Colombia",ChIJCd5DatuYP44RzRRT3LrYI8A,ROOFTOP,"4.579038,-74.1075936"
"183",EDS LA AMERICANA,EXXON MOBIL COLOMBIA - AUTOMARKET,BOGOT�,CUNDINAMARCA,CALLE 13 NO. 57-24,COLOMBIA,"0",OK,"Cl. 13 #57-24, Bogotá, Colombia",ChIJo3KwFeObP44RKKqrjQhb98Y,ROOFTOP,"4.6311737,-74.11061629999999"
"184",EDS DISENERCOM DISTRIBUIDORES DE ENERGIA Y  COMBUSTIBL,DISENERCOM S.A.,BOGOT�,CUNDINAMARCA,CALLE 12 NO. 35-50,COLOMBIA,"0",OK,"Cl. 12 #35-50, Bogotá, Colombia",ChIJ7c_YZGiZP44RgJPghcS4_Do,ROOFTOP,"4.6166,-74.09804749999999"
"185",EDS TEXACO 16,GAS NATURAL FENOSA,BOGOT�,CUNDINAMARCA,CARRERA 30 NO. 41-25,COLOMBIA,"0",OK,"Ak 30 ## 41-25, Bogotá, Cundinamarca, Colombia",ChIJGYuc5NObP44RyDUbb40aHtA,ROOFTOP,"4.6322118,-74.0801879"
"186",EDS TEXACO 19,DISTRIBUCOM LTDA,BOGOT�,CUNDINAMARCA,CALLE 19 BIS SUR NO. 32-79,COLOMBIA,"0",OK,"Cl. 19 Bis Sur, San Cristóbal, Bogotá, Colombia",ChIJgyacJO-YP44Ra62dMnOw6II,GEOMETRIC_CENTER,"4.5753578,-74.0935098"
"187",EDS TEXACO 40,GAS NATURAL FENOSA,BOGOT�,CUNDINAMARCA,CALLE 26 SUR NO. 49A-75,COLOMBIA,"0",OK,"Cl. 26 Sur ##95a-49, Bogotá, Colombia",ChIJRVdCaIKdP44RkIocR7gDVVk,ROOFTOP,"4.6500704,-74.1698528"
"190",EDS TEXACO 25,GAS NATURAL FENOSA,BOGOT�,CUNDINAMARCA,DIAGONAL 12 SUR NO. 14B-61 - HOY  DIRECCI�N NUEVA AV. CALLE 11 SUR NO. 15 11. TEL,COLOMBIA,"0",OK,"Tv. 18 bis #14-24, Bogotá, Colombia",ChIJW3UyPOCYP44RC7prwQjcbQc,ROOFTOP,"4.5865694,-74.0988356"
"191",EDS SEXTA ANTIGUA,GAS NATURAL FENOSA,BOGOT�,CUNDINAMARCA,DIAGONAL 6 NO. 16A-14,COLOMBIA,"0",OK,"Dg. 6 Sur #1-6, Bogotá, Colombia",EiFEZy4gNiBTdXIgIzEtNiwgQm9nb3TDoSwgQ29sb21iaWEiGhIYChQKEgnNW50A-Zg_jhEzOnX5yh2kwRAG,RANGE_INTERPOLATED,"4.5794786,-74.07963509999999"
"192",EDS ESSO LOS HEROES,EXXON MOBIL COLOMBIA - AUTOMARKET,BOGOT�,CUNDINAMARCA,AVENIDA 13 NO. 78-77,COLOMBIA,"0",OK,"Cra. 78 #77J-95SUR, Antonio Nariño, Bogotá, Colombia",ChIJDZuPpF-eP44R6nBe6MaU_x8,ROOFTOP,"4.6070867,-74.1728542"
"193",EDS ESSO COMUNEROS,EXXON MOBIL COLOMBIA - AUTOMARKET,BOGOT�,CUNDINAMARCA,CALLE 6 NO. 19-49,COLOMBIA,"0",OK,"Cl. 6 #19-49, Bogotá, Colombia",Eh9DbC4gNiAjMTktNDksIEJvZ290w6EsIENvbG9tYmlhIhoSGAoUChIJP2CFxBGZP44RB-NZU_lxSYIQMQ,RANGE_INTERPOLATED,"4.600649900000001,-74.0896985"
"194",EDS PUENTE ARANDA,EXXON MOBIL COLOMBIA - AUTOMARKET,BOGOT�,CUNDINAMARCA,CARRERA 50 NO. 19-15,COLOMBIA,"0",OK,"Calle 3 con Carrera 50,Bogotá, Colombia, Ac. 3, Bogotá, Colombia",ChIJ_R9hBk-ZP44RD-1WwSQcrsM,GEOMETRIC_CENTER,"4.6149904,-74.1146194"
"197",EDS LOS LAGARTOS,ESTACI�N LOS LAGARTOS,BOGOT�,CUNDINAMARCA,AVENIDA BOYAC� NO. 95-31,COLOMBIA,"0",OK,"Av. Boyacá #95-31, Bogotá, Colombia",EiVBdi4gQm95YWPDoSAjOTUtMzEsIEJvZ290w6EsIENvbG9tYmlhIhoSGAoUChIJFwChUS-bP44RboMcAv2csIsQHw,RANGE_INTERPOLATED,"4.697376999999999,-74.08373379999999"
"217",EDS CAMPOALEGRE,SUPERESTACIONES DE COLOMBIA,BOGOT�,CUNDINAMARCA,AV. CIUDAD DE CALI NO. 6-93,COLOMBIA,"0",OK,"Ak. 86 #6-93, Bogotá, Colombia",Eh9Bay4gODYgIzYtOTMsIEJvZ290w6EsIENvbG9tYmlhIhoSGAoUChIJK9WypDucP44RJctDTvErt1wQXQ,RANGE_INTERPOLATED,"4.641850499999999,-74.1550938"
"218",EDS SAN JOSE DE QUITO,INVERSIONES DANNPA,BOGOT�,CUNDINAMARCA,CARRERA 37 NO. 70A-26,COLOMBIA,"0",OK,"Bogota, Colombia",ChIJKcumLf2bP44RFDmjIFVjnSM,APPROXIMATE,"4.710988599999999,-74.072092"
"220",GAS NATURAL TEXACO 34,GAS NATURAL FENOSA,BOGOT�,CUNDINAMARCA,CALLE 26 NO. 32-61,COLOMBIA,"0",OK,"Av. El Dorado #32-61, Bogotá, Cundinamarca, Colombia",ChIJGUjG0NWbP44Rnl3o3vnIhlM,ROOFTOP,"4.6287364,-74.0824671"
"232",EDS TUNJUELITO,GAS NATURAL FENOSA,BOGOT�,CUNDINAMARCA,AVENIDA 11 NO. 51-00 SUR,COLOMBIA,"0",OK,"Bogota, Colombia",ChIJKcumLf2bP44RFDmjIFVjnSM,APPROXIMATE,"4.710988599999999,-74.072092"
"233",EDS TEXACO ORION,INVERSIONES PARMALAT,BOGOT�,CUNDINAMARCA,AUTOPISTA NORTE 13 NO. 166-73,COLOMBIA,"0",OK,"Autopista Nte. #13 NO. 166-73, Bogotá, Colombia",EjBBdXRvcGlzdGEgTnRlLiAjMTMgTk8uIDE2Ni03MywgQm9nb3TDoSwgQ29sb21iaWEiKhooChoSGAoUChIJWWP56EmFP44RhnkUfuQj2zEQDRIKTk8uIDE2Ni03Mw,RANGE_INTERPOLATED,"4.7119275,-74.0526706"
"244",EDS AVENIDA BOYAC�,TERCERO_GAZEL,BOGOT�,CUNDINAMARCA,AVENIDA BOYAC� NO. 77A-15,COLOMBIA,"0",OK,"Av. Boyacá #77a-15, Bogotá, Colombia",EiZBdi4gQm95YWPDoSAjNzdhLTE1LCBCb2dvdMOhLCBDb2xvbWJpYSIaEhgKFAoSCXdUeAs7mz-OESr9l7J6ELuUEA8,RANGE_INTERPOLATED,"4.6935465,-74.091399"
"245",EDS BETANIA,ORGANIZACI�N TERPEL S.A.,BOGOT�,CUNDINAMARCA,CARRERA 86A NO. 52-12 SUR,COLOMBIA,"0",OK,"Cra. 86a, Bosa, Bogotá, Colombia",ChIJKUfu7XCeP44R8qdfulZcb2I,GEOMETRIC_CENTER,"4.6215002,-74.1838891"
"252",EDS  INDUSTRIAL BOYACA,EXXON MOBIL COLOMBIA - AUTOMARKET,BOGOT�,CUNDINAMARCA,CARRERA 71 NO. 19-53,COLOMBIA,"0",OK,"Cra. 71 #19-53, Bogotá, Colombia",EiFDcmEuIDcxICMxOS01MywgQm9nb3TDoSwgQ29sb21iaWEiGhIYChQKEgn5fgEYips_jhGEuTEGzddWwRA1,RANGE_INTERPOLATED,"4.6522868,-74.12262220000001"
"260",EDS GAS NATURAL PORTAL DE ALAMOS,GAS NATURAL FENOSA,BOGOT�,CUNDINAMARCA,CARRERA 98 NO. 63-39,COLOMBIA,"0",OK,"Cra. 98 #63-39, Zona 6, Bogotá, Colombia",ChIJn8flklibP44Rsrgh3kfMtH0,ROOFTOP,"4.694495,-74.122648"
"261",EDS VILLA CLAUDIA,ORGANIZACI�N TERPEL S.A.,BOGOT�,CUNDINAMARCA,CARRERA 68 NO. 14-21,COLOMBIA,"0",OK,"Cundinamarca, Colombia",ChIJK68WFusoP44R7QjR-rW8PJM,APPROXIMATE,"5.026002999999999,-74.0300122"
"264",EDS ERMITA CAPILLA,EXXON MOBIL COLOMBIA - AUTOMARKET,BOGOT�,CUNDINAMARCA,AVENIDA CARACAS NO. 45-25,COLOMBIA,"0",OK,"Av. Caracas #45-25, Bogotá, Colombia",EiVBdi4gQ2FyYWNhcyAjNDUtMjUsIEJvZ290w6EsIENvbG9tYmlhIhoSGAoUChIJa8EnGC-aP44RiNHyFDUzOd8QGQ,RANGE_INTERPOLATED,"4.6327291,-74.0675411"
"267",EDS CENTRO BOGOT� (AUTOMOVIL CLUB),ORGANIZACI�N TERPEL S.A.,BOGOT�,CUNDINAMARCA,CARRERA 13 NO. 16-77,COLOMBIA,"0",OK,"Cra. 13 #16-77, Bogotá, Colombia",EiFDcmEuIDEzICMxNi03NywgQm9nb3TDoSwgQ29sb21iaWEiGhIYChQKEgnrjJMKoJk_jhGg0ai_m6jCWhBN,RANGE_INTERPOLATED,"4.6059817,-74.07678059999999"
"278",EDS CRUZ ROJA,ORGANIZACI�N TERPEL S.A.,BOGOT�,CUNDINAMARCA,AVENIDA CARRERA 68    67B-05,COLOMBIA,"0",OK,"Ak 68 #67b-5, Bogotá, Colombia",Eh9BayA2OCAjNjdiLTUsIEJvZ290w6EsIENvbG9tYmlhIhoSGAoUChIJsYpOgwWbP44RIMa_dW-2a5MQBQ,RANGE_INTERPOLATED,"4.6740692,-74.0882991"
"285",EDS TERPEL GANADERO,ORGANIZACI�N TERPEL S.A.,BOGOT�,CUNDINAMARCA,AVENIDA BOYAC� NO. 70-53 SUR,COLOMBIA,"0",OK,"Av. Boyacá #70-53, Bogotá, Colombia",EiVBdi4gQm95YWPDoSAjNzAtNTMsIEJvZ290w6EsIENvbG9tYmlhIhoSGAoUChIJM-KIsBWbP44R5iMueyYqtwkQNQ,RANGE_INTERPOLATED,"4.6854871,-74.0966467"
"286",EDS TUGAS AV. CIUDAD DE CALI,INVERSIONES G�MEZ MONTA�EZ LTDA.,BOGOT�,CUNDINAMARCA,CARRERA 83  13A-05,COLOMBIA,"0",OK,"Cra. 83 #13a-5, Bogotá, Colombia",EiFDcmEuIDgzICMxM2EtNSwgQm9nb3TDoSwgQ29sb21iaWEiGhIYChQKEgl9dQujbpw_jhHam7FkXGGF4xAF,RANGE_INTERPOLATED,"4.6534919,-74.1406518"
"293",EDS CRUCE DE MOSQUERA,EXXON MOBIL COLOMBIA - AUTOMARKET,BOGOT�,CUNDINAMARCA,CALLE 13  3-59 ESTE,COLOMBIA,"0",OK,"Cl. 13 #3-59, Mosquera, Cundinamarca, Colombia",Ei5DbC4gMTMgIzMtNTksIE1vc3F1ZXJhLCBDdW5kaW5hbWFyY2EsIENvbG9tYmlhIhoSGAoUChIJSQON7iCdP44RTqyT00X9S9QQOw,RANGE_INTERPOLATED,"4.6921649,-74.1730066"
"302",EDS AUTOPISTA MEDELL�N,EXXON MOBIL COLOMBIA - AUTOMARKET,BOGOT�,CUNDINAMARCA,KIL�METRO 1 V�A SIBERIA - BOGOT�,COLOMBIA,"0",OK,"Autopista Medellín,Vía Siberia, Km. 3,5 Bogotá-La Vega, Cota, Cundinamarca, Colombia",ChIJj1TsP5-DP44RwKnBMj-YUn4,GEOMETRIC_CENTER,"4.7530721,-74.14546059999999"
"304",GNV ESSO EL TESORO,GAS NATURAL FENOSA,BOGOT�,CUNDINAMARCA,CALLE 17  115-81,COLOMBIA,"0",OK,"Cl. 17 #115-81, Bogotá, Colombia",ChIJaRmm2-6cP44RK3y0x-nKGOQ,ROOFTOP,"4.682707,-74.15576000000001"
"313",EDS FUNDACION AVENIDA ROJAS,GNE SOLUCIONES SAS,BOGOT�,CUNDINAMARCA,CARRERA 70 o AVENIDA ROJAS 70  64-39,COLOMBIA,"0",OK,"Estación Avenida Rojas ##70-32, Bogotá, Colombia",ChIJNyoUl5ubP44RBVtwJou86eM,ROOFTOP,"4.6614479,-74.1084659"
"328",EDS BRIO ROCAMAR,GAS NATURAL FENOSA,BOGOT�,CUNDINAMARCA,CARRERA 7  168 - 69,COLOMBIA,"0",OK,"Cra. 7 #168-69, Bogotá, Colombia",EiFDcmEuIDcgIzE2OC02OSwgQm9nb3TDoSwgQ29sb21iaWEiGhIYChQKEgnHD2WVeI8_jhEQdjLVNTK1xBBF,RANGE_INTERPOLATED,"4.746646399999999,-74.0228073"
"329",EDS SAN MIGUEL DEL NORTE / PAFISS DE COLOMBIA S.A.S.,INVERSIONES ALDEMAR S EN C,BOGOT�,CUNDINAMARCA,CALLE 130 No. 45-34,COLOMBIA,"0",OK,"CALLE 130# #45-34, Bogotá, Cundinamarca, Colombia",ChIJq5N1XZeFP44Rv64wJVuFgfM,ROOFTOP,"4.7165824,-74.0528604"
"331",EDS EL DARIEN,INVERSIONES RENGIFO ROJAS Y  CIA.,BOGOT�,CUNDINAMARCA,CARRERA 69B  26-35,COLOMBIA,"0",OK,"Cra. 69b #26, Antonio Nariño, Bogotá, Colombia",ChIJ7yWPp7CeP44RNiu1X9t1pMc,ROOFTOP,"4.613954,-74.1357146"
"335",EDS BIOMAX TINTAL,GNE SOLUCIONES SAS,BOGOT�,CUNDINAMARCA,AC 54 SUR 89a -55,COLOMBIA,"0",OK,"Ac. 54 Sur, Bosa, Bogotá, Colombia",ChIJO5GZaNudP44Rc-UFFsfO5n0,GEOMETRIC_CENTER,"4.6379492,-74.18778999999999"
"342",EDS ANDES,EXXON MOBIL COLOMBIA - AUTOMARKET,BOGOT�,CUNDINAMARCA,CARRERA 80  58L-15 SUR,COLOMBIA,"0",OK,"Cra. 80 #58, Bogotá, Colombia",ChIJyT0ibWeeP44R7zG8aI9MjmI,ROOFTOP,"4.6104024,-74.1788746"
"348",EDS LA PALMA,GAS NATURAL FENOSA,BOGOT�,CUNDINAMARCA,AV. CRA. 68 NO. 13 - 87,COLOMBIA,"0",OK,"Ak 68 ## 13-73, Bogotá, D.C, Bogotá, Colombia",ChIJqZdT9sKaP44R_VzU3qZUamg,ROOFTOP,"4.639060199999999,-74.1168355"
"351",EDS ESSO AVENIDA BOYACA,EXXON MOBIL COLOMBIA - AUTOMARKET,BOGOT�,CUNDINAMARCA,AV. BOYACA NO. 12B - 35,COLOMBIA,"0",OK,"Av. Boyacá #12b-35, Bogotá, Colombia",EiZBdi4gQm95YWPDoSAjMTJiLTM1LCBCb2dvdMOhLCBDb2xvbWJpYSIaEhgKFAoSCec8il0LnD-OEWclH4debZdXECM,RANGE_INTERPOLATED,"4.646383399999999,-74.1297261"
"358",EDS ALFA COMPRESION S.A./ EDS CENTENARIO,ALFA COMPRESION S.A.,BOGOT�,CUNDINAMARCA,Av  Carrera 45 # 103 - 34,COLOMBIA,"0",OK,"Cra. 45 #103-34, Usaquén, Bogotá, Colombia",ChIJNRoj3sCaP44Rf5xbL2ajMKY,ROOFTOP,"4.6900677,-74.0560368"
"359",EDS LOS FUNDADORES,GAS NATURAL FENOSA,BOGOT�,CUNDINAMARCA,AV. 1A MAYO NO. 68 I-46 SUR,COLOMBIA,"0",OK,"Av. 1 de Mayo #68i-46, Bogotá, Colombia",EihBdi4gMSBkZSBNYXlvICM2OGktNDYsIEJvZ290w6EsIENvbG9tYmlhIhoSGAoUChIJm5zLPLeeP44RzEEF8ZnU7HYQLg,RANGE_INTERPOLATED,"4.612204,-74.13362620000001"
"361",EDS CARREFOUR LA ALQUERIA / EDS CENCOSUD ALQUERIA,ORGANIZACI�N TERPEL S.A.,BOGOT�,CUNDINAMARCA,AV CRA 68 No. 38B 18 SUR,COLOMBIA,"0",OK,"Ak 68 #18-38, Bogotá, Colombia",ChIJfxEBeLSeP44RDWw_TAdO9dM,ROOFTOP,"4.6130252,-74.1276512"
"366",EDS EXPRESO BOGOT�NO,GAS NATURAL FENOSA,BOGOT�,CUNDINAMARCA,AV. 68 NO. 43 - 67SUR,COLOMBIA,"0",OK,"Ak 68 ## 72-43, Bogotá, Colombia",ChIJL3NbrxubP44RVUKQ9LwIeK8,ROOFTOP,"4.6798396,-74.08586319999999"
"375",EDS SAN RAFAEL - PUENTE ARANDA,COMPA��A DE NEGOCIOS,BOGOT�,CUNDINAMARCA,"CRA, 49 NO. 9-24 BARRIO SAN RAFAEL",COLOMBIA,"0",OK,"Cra. 24 #9, Antonio Nariño, Bogotá, Colombia",ChIJCwHUSxGZP44RbzS1yxtfJco,ROOFTOP,"4.6012381,-74.0942859"
"376",EDS GNV BRIO - ALTAMAR,GAS NATURAL FENOSA,BOGOT�,CUNDINAMARCA,AV. CIUDAD DE CALI NO. 99 - 10,COLOMBIA,"0",OK,"Av. Cdad. de Cali #99-10, Bogotá, Colombia",EitBdi4gQ2RhZC4gZGUgQ2FsaSAjOTktMTAsIEJvZ290w6EsIENvbG9tYmlhIhoSGAoUChIJ8TZpa8CEP44RD9ger8ExThwQCg,RANGE_INTERPOLATED,"4.7257555,-74.0993186"
"381",EDS BAVARIA S.A. - CERVECERIA BOGOT�,BAVARIA S.A.,BOGOT�,CUNDINAMARCA,AVENIDA BOYACA NO. 9 - 02,COLOMBIA,"0",OK,"Av. Boyacá #9-2, Bogotá, Colombia",EiNBdi4gQm95YWPDoSAjOS0yLCBCb2dvdMOhLCBDb2xvbWJpYSIaEhgKFAoSCScn7SAQnD-OESlupltp0gt0EAI,RANGE_INTERPOLATED,"4.639381600000001,-74.1359382"
"384",EDS DE GNV PALOQUEMAO,COMBUSTIBLES VEHICULARES DE,BOGOT�,CUNDINAMARCA,TRANSVERSAL 22 NO. 19/28/44/60,COLOMBIA,"0",OK,"Bogota, Colombia",ChIJKcumLf2bP44RFDmjIFVjnSM,APPROXIMATE,"4.710988599999999,-74.072092"
"391",EDS SERVYCOM,GAS NATURAL FENOSA,BOGOT�,CUNDINAMARCA,"CRA, 55 NO. 72 - 32 - BARRIO NORMANDIA",COLOMBIA,"0",OK,"Cra. 71b ##53-35, Bogotá, Colombia",ChIJWZ7T0qedP44RhBpKaQqWn54,ROOFTOP,"4.6707382,-74.1055993"
"399",EDS CARREFOUR MARRUECOS,GAS NATURAL FENOSA,BOGOT�,CUNDINAMARCA,AV. CARACAS NO. 49- 28 SUR,COLOMBIA,"0",OK,"Av. Caracas #49-28, Bogotá, Colombia",EiVBdi4gQ2FyYWNhcyAjNDktMjgsIEJvZ290w6EsIENvbG9tYmlhIhoSGAoUChIJz53CIzCaP44RtVBaBxjNaV0QHA,RANGE_INTERPOLATED,"4.6367275,-74.0670541"
"406",EDS GNCV,GAS CENTRAL DE LA SABANA,BOGOT�,CUNDINAMARCA,AK 72 (AV. BOYACA) NO. 31- 40 SUR,COLOMBIA,"0",OK,"Av. Boyacá #72-33 NO. 31- 40, Engativá, Bogotá, Colombia",EjtBdi4gQm95YWPDoSAjNzItMzMgTk8uIDMxLSA0MCwgRW5nYXRpdsOhLCBCb2dvdMOhLCBDb2xvbWJpYSImGiQKFgoUChIJvdSBHD6bP44RglyguDFWgVwSCk5PLiAzMS0gNDA,ROOFTOP,"4.6874177,-74.0955259"
"413",EDS TEXACO TUNAL LUBRICANTES Y  COMBUSTIBLES DEL,LUBRICANTES Y  COMBUSTIBLES DEL,BOGOT�,CUNDINAMARCA,CALLE 46 SUR NO. 24 A - 03,COLOMBIA,"0",OK,"Cl. 46 Sur #24a-3, Bogotá, Colombia",EiRDbC4gNDYgU3VyICMyNGEtMywgQm9nb3TDoSwgQ29sb21iaWEiGhIYChQKEgnVU2-aLZ8_jhH352hjnY2ixBAD,RANGE_INTERPOLATED,"4.5787749,-74.1277033"
"418",EDS PETROBRAS CALLE 13,GAS NATURAL FENOSA,BOGOT�,CUNDINAMARCA,CALLE 13 NO. 68 B - 88 BARRIO MONTEVIDEO,COLOMBIA,"0",OK,"Bogota, Colombia",ChIJKcumLf2bP44RFDmjIFVjnSM,APPROXIMATE,"4.710988599999999,-74.072092"
"426",EDS LIBERTADORES,EXXON MOBIL COLOMBIA - AUTOMARKET,BOGOT�,CUNDINAMARCA,AV. CARACAS NO. 75 - 18,COLOMBIA,"0",OK,"Av. Caracas #75-18, Bogotá, Colombia",EiVBdi4gQ2FyYWNhcyAjNzUtMTgsIEJvZ290w6EsIENvbG9tYmlhIhoSGAoUChIJpTFyGlmaP44RpnJjqezPf84QEg,RANGE_INTERPOLATED,"4.6632226,-74.0613479"
"427",EDS COUNTRY,GAS NATURAL FENOSA,BOGOT�,CUNDINAMARCA,AV. 19 NO. 127C - 50,COLOMBIA,"0",OK,"Cl. 127c, Suba, Bogotá, Colombia",ChIJ3dPyFMSEP44R51IC0O3NbuE,GEOMETRIC_CENTER,"4.7203341,-74.0938208"
"429",EDS EN BAVARIA S.A. - CERVECERIA LEONA,BAVARIA S.A.,BOGOT�,CUNDINAMARCA,"AUTOP. NORTE KM. 30 VIA BOGOT� - TUNJA, TOCANCIPA - CUNDINAMARCA",COLOMBIA,"0",OK,"Bogotá - Tunja #30, Tocancipá, Cundinamarca, Colombia",EjdCb2dvdMOhIC0gVHVuamEgIzMwLCBUb2NhbmNpcMOhLCBDdW5kaW5hbWFyY2EsIENvbG9tYmlhIhoSGAoUChIJL2rMPcBzQI4RyMMHQ1wols4QHg,RANGE_INTERPOLATED,"4.9637765,-73.91390559999999"
"430",EDS TEXACO SUBA EDS LA JUANA,GAS NATURAL FENOSA,BOGOT�,CUNDINAMARCA,AV. CALLE 145 NO. 94D - 95,COLOMBIA,"0",OK,"Cl. 145 #94d-95, Bogotá, Colombia",EiJDbC4gMTQ1ICM5NGQtOTUsIEJvZ290w6EsIENvbG9tYmlhIhoSGAoUChIJkTTTcPqEP44RoM-pWLGtjxMQXw,RANGE_INTERPOLATED,"4.7403305,-74.0885436"
"435",EDS TERPEL LA 49 NORMANDIA,ORGANIZACION TERPEL S.A.,BOGOTA,CUNDINAMARCA,CARRERA 72 No. 49 - 30 (NORMANDIA),COLOMBIA,"0",OK,"Av. Boyacá #49-30, Bogotá, Colombia",EiVBdi4gQm95YWPDoSAjNDktMzAsIEJvZ290w6EsIENvbG9tYmlhIhoSGAoUChIJM50fznebP44RydSXi5koGxoQHg,RANGE_INTERPOLATED,"4.6680626,-74.10963819999999"
"436",EDS TERPEL CONEJERA,ORGANIZACI�N TERPEL S.A.,BOGOT�,CUNDINAMARCA,CRA. 98 NO. 140B - 86,COLOMBIA,"0",OK,"Cl. 98 #140-10, Bogotá, Colombia",ChIJbYuvJZSaP44RJVf4_U10e1k,ROOFTOP,"4.6828011,-74.0481422"
"441",EDS CARREFOUR BOSA - ATALAYAS,GAS NATURAL FENOSA,BOGOT�,CUNDINAMARCA,CRA 92 NO. 60-90 SUR,COLOMBIA,"0",OK,"Cra. 92 #148-90, Bogotá, Cundinamarca, Colombia",ChIJCf6Zw9-dP44RhynFfRwfrgs,ROOFTOP,"4.630998,-74.19349"
"443",EDS AUTOSERVICIO AV. TERCERA,DISTRIBUIDORA DE CARBURANTES,BOGOT�,CUNDINAMARCA,AV. CALLE 3 NO. 34 A - 82,COLOMBIA,"0",OK,"Ac. 3 #34A-82, Puente Aranda, Bogotá, Colombia",ChIJOe5-rECZP44R77R6VNXuKzE,ROOFTOP,"4.6078892,-74.10617950000001"
"444",EDS YOMASA,GAS NATURAL FENOSA,BOGOT�,CUNDINAMARCA,CARRERA 3D No. 88-04 SUR,COLOMBIA,"0",OK,"Bogota, Colombia",ChIJKcumLf2bP44RFDmjIFVjnSM,APPROXIMATE,"4.710988599999999,-74.072092"
"450",EDS CARREFOUR EL TREBOL,GAS NATURAL FENOSA,BOGOT�,CUNDINAMARCA,GAS NATURAL FENOSA,COLOMBIA,"0",OK,"Cra. 17 #16-14, Antonio Nariño, Bogotá, Colombia",ChIJr6019w-ZP44RbIJ3rx97v44,ROOFTOP,"4.597481,-74.087921"
"454",EDS IBERIA,GAS NATURAL FENOSA,BOGOT�,CUNDINAMARCA,CLL 134 NO. 53 - 51,COLOMBIA,"0",OK,"Cl. 134 ##53-51, Bogotá, Colombia",ChIJzRdoaDmFP44Rzo_1BR762Og,ROOFTOP,"4.7198663,-74.0588771"
"458",EDS BRIO BIMA,GAS NATURAL FENOSA,BOGOT�,CUNDINAMARCA,AUTOP. NORTE 232 - 35,COLOMBIA,"0",OK,"Autopista Nte. #232-35, Suba, Bogotá, Colombia",ChIJHYvDSSKGP44RFn7zDJ3Woe0,ROOFTOP,"4.8077187,-74.0374582"
"468",EDS GNV PRADERA DE SUBA,A.B.A. CENTRAL DE COMBUSTIBLES Y,BOGOT�,CUNDINAMARCA,CRA. 104 NO. 151C - 84,COLOMBIA,"0",OK,"Cra. 104 #151c-84, Bogotá, Colombia",EiRDcmEuIDEwNCAjMTUxYy04NCwgQm9nb3TDoSwgQ29sb21iaWEiGhIYChQKEgkRshRcWYQ_jhEwJslWBg0_ZhBU,RANGE_INTERPOLATED,"4.7517939,-74.09324629999999"
"469",EDS AMERICAS II,GAS NATURAL FENOSA,BOGOT�,CUNDINAMARCA,CARRERA 54 NO. 5C - 91,COLOMBIA,"0",OK,"Carrera 54 #5c-91, Bogotá, Colombia",EiRDYXJyZXJhIDU0ICM1Yy05MSwgQm9nb3TDoSwgQ29sb21iaWEiGhIYChQKEgn_su8GWJk_jhF3ZhcysbJj7BBb,RANGE_INTERPOLATED,"4.627323,-74.1118494"
"477",EDS PETROBRAS VERGEL,GAS NATURAL FENOSA,BOGOT�,CUNDINAMARCA,CALLE 13 A NO. 83 - 25/65,COLOMBIA,"0",OK,"Bogota, Colombia",ChIJKcumLf2bP44RFDmjIFVjnSM,APPROXIMATE,"4.710988599999999,-74.072092"
"481",EDS A GAS LAS FLORES Y/O JAVIER LEYVA GONZALEZ,ESTACI�N DE SERVICIO A GAS LAS,BOGOT�,CUNDINAMARCA,CALLE 25 SUR NO. 86-50,COLOMBIA,"0",OK,"Cl. 25 Sur ##8-86, Bogotá, Colombia",ChIJCfOIX-mYP44Rsn1kJMhtOIY,ROOFTOP,"4.5724667,-74.0959682"
"483",EDS CARREFOUR SAN CAYETANO,GAS NATURAL FENOSA,BOGOT�,CUNDINAMARCA,CALLE 46 A N 85 A 51,COLOMBIA,"0",OK,"Cl. 46 Sur, Kennedy, Bogotá, Colombia",ChIJp6CUj3-eP44RQQfiuei8emw,GEOMETRIC_CENTER,"4.627778,-74.17367999999999"
"484",EDS CARREFOUR VERAGUAS,CENCOSUD,BOGOT�,CUNDINAMARCA,CALLE 3 NO. 34 A 82,COLOMBIA,"0",OK,"Ac. 3 #34A-82, Puente Aranda, Bogotá, Colombia",ChIJOe5-rECZP44R77R6VNXuKzE,ROOFTOP,"4.6078892,-74.10617950000001"
"487",EDS CALLE 50,JAIRO AUGUSTO QUIJANO CARRILLO,BOGOT�,CUNDINAMARCA,CARRERA 17 NO. 50 - 42,COLOMBIA,"0",OK,"Cra. 17 #50-42, Bogotá, Colombia",EiFDcmEuIDE3ICM1MC00MiwgQm9nb3TDoSwgQ29sb21iaWEiGhIYChQKEgk9I3SWMZo_jhFc5Q8grNMPjBAq,RANGE_INTERPOLATED,"4.6382916,-74.0693514"
"506",EDS EL PROVEEDOR DE COMBUSTIBLES LTDA,GAS NATURAL FENOSA,BOGOT�,CUNDINAMARCA,CALLE 13 NO. 33 - 10 BOGOT�,COLOMBIA,"0",OK,"Cl. 13 #33-10, Bogotá, Colombia",ChIJZUJLq2iZP44R-s5Jp5BwAes,ROOFTOP,"4.6170199,-74.0946366"
"507",CALLE 80,GRANDES SUPERFICIES DE COLOMBIA,BOGOT�,CUNDINAMARCA,AV.CALLE 80 NO 69Q - 50,COLOMBIA,"0",OK,"Av cll 80 N° 69Q-50, Bogotá, Cundinamarca, Colombia",ChIJdZMFdyGbP44RmbyPo5AaTQM,GEOMETRIC_CENTER,"4.690959299999999,-74.0841774"
"508",CALLE 170,GRANDES SUPERFICIES DE COLOMBIA,BOGOT�,CUNDINAMARCA,CALLE 170 NO 64 - 42,COLOMBIA,"0",OK,"Cl. 170 #64-47, Bogotá, Cundinamarca, Colombia",ChIJFSwVcqOFP44R9PpLN0ODn2M,ROOFTOP,"4.7564955,-74.0652502"
"509",HAYUELOS,GAS NATURAL FENOSA,BOGOT�,CUNDINAMARCA,AK 86 NO 19A - 50,COLOMBIA,"0",OK,"Ak. 86 ##19A-50, Bogotá, Colombia",ChIJ5cBdFnycP44RR2FmMtyO5GU,ROOFTOP,"4.662495,-74.1320968"
"510",CRA 30,GRANDES SUPERFICIES DE COLOMBIA,BOGOT�,CUNDINAMARCA,CRA 32 NO 18 - 10,COLOMBIA,"0",OK,"Cra. 32 #18-10, Bogotá, Colombia",EiFDcmEuIDMyICMxOC0xMCwgQm9nb3TDoSwgQ29sb21iaWEiGhIYChQKEgkTJVUgZZk_jhErDIm1ljnLWhAK,RANGE_INTERPOLATED,"4.6193034,-74.0901887"
"511",AUTO SUR,GRANDES SUPERFICIES DE COLOMBIA,BOGOT�,CUNDINAMARCA,AUTOPISTA SUR NO 77A - 18,COLOMBIA,"0",OK,"Autopista Sur #77a-18, Bogotá, Colombia",EihBdXRvcGlzdGEgU3VyICM3N2EtMTgsIEJvZ290w6EsIENvbG9tYmlhIhoSGAoUChIJUwz_0lGeP44R1-S90z0F2fEQEg,RANGE_INTERPOLATED,"4.5966943,-74.18209639999999"
"512",TEXACO 24,GRANDES SUPERFICIES DE COLOMBIA,BOGOT�,CUNDINAMARCA,CRA 24 NO. 5 B - 40,COLOMBIA,"0",OK,"Cra. 24 #5b-40, Antonio Nariño, Bogotá, Colombia",ChIJ_zFAWRGZP44ROci1jhgxb08,ROOFTOP,"4.6020521,-74.09361870000001"
"542",EDS GAZEL LA MARIANA,ORGANIZACI�N TERPEL S.A.,BOGOT�,CUNDINAMARCA,DIAGONAL 2B NO. 85-10,COLOMBIA,"0",OK,"Dg. 2b ##85-10, Bogotá, Colombia",ChIJFZzb2zqcP44RWvyk4nWmw78,ROOFTOP,"4.6394636,-74.1566934"
"543",EDS GAZEL PALMAS DE TUMACO,ORGANIZACI�N TERPEL S.A.,BOGOT�,CUNDINAMARCA,CARRERA 68 NO. 17-65,COLOMBIA,"0",OK,"Calle 17, Ak 68, Bogotá, Colombia",ChIJG9BAAfGbP44RLiEpAW9PVs8,GEOMETRIC_CENTER,"4.640436,-74.115471"
"544",EDS GAZEL SUPER GAS - SANTA LUCIA,NESTOR GONZALEZ_GAZEL,BOGOT�,CUNDINAMARCA,CARREA 16B NO. 55A 59,COLOMBIA,"0",OK,"Cra. 55a, Barrios Unidos, Bogotá, Colombia",ChIJjSg0-_yaP44RHBoXNC7iqac,GEOMETRIC_CENTER,"4.6747474,-74.073624"
"545",EDS GAZEL TERPEL AURES II,EMPRESA ADMINISTRADORA DE,BOGOT�,CUNDINAMARCA,AV CLLE 132 No. 109 A 65 Suba Aures II,COLOMBIA,"0",OK,"Cl 132 #109a-65, Bogotá, Colombia",EiJDbCAxMzIgIzEwOWEtNjUsIEJvZ290w6EsIENvbG9tYmlhIhoSGAoUChIJJedvf42EP44RUAJsS0wAuTcQQQ,RANGE_INTERPOLATED,"4.7374196,-74.1034227"
"546",EDS GAZEL TERPEL PALOQUEMAO,TERCERO_GAZEL,BOGOT�,CUNDINAMARCA,AVENIDA CALLE 19 NO. 33-98,COLOMBIA,"0",OK,"Av. Cdad. de Lima #33-98, Bogotá, Colombia",EitBdi4gQ2RhZC4gZGUgTGltYSAjMzMtOTgsIEJvZ290w6EsIENvbG9tYmlhIhoSGAoUChIJ6V0EjWSZP44RSdhJ-C4c4KwQYg,RANGE_INTERPOLATED,"4.6214118,-74.0914829"
"585",EDS SUPER BRIO USME,GAS NATURAL FENOSA,BOGOT�,CUNDINAMARCA,Carrera 51 sur # 5 D - 70,COLOMBIA,"0",OK,"Dg. 51 Sur #5 D - 70, Tunjuelito, Bogotá, Colombia",EjNEZy4gNTEgU3VyICM1IEQgLSA3MCwgVHVuanVlbGl0bywgQm9nb3TDoSwgQ29sb21iaWEiIhogChYKFAoSCWHjwhvfnj-OEXeMrHfe3UU5EgZEIC0gNzA,ROOFTOP,"4.590571400000001,-74.14350180000001"
"590",EDS LAS QUINTAS,INVERSIONES CARRE�O GUTIERREZ,BOGOT�,CUNDINAMARCA,KM. 1 V�A A SINCELEJO,COLOMBIA,"0",OK,"Sincelejo, Sucre, Colombia",ChIJVykXQUgUWY4RNFOe93u4tdQ,APPROXIMATE,"9.3045773,-75.39055669999999"
"611",EDS AVENIDA TERCERA,SERVICENTRO ESSO AVENIDA TERCERA,BOGOT�,CUNDINAMARCA,CARRERA LA NO. 17-18,COLOMBIA,"0",OK,"Cra. 18 ##93A - 83, Bogotá, Cundinamarca, Colombia",ChIJhaVFNJOaP44RqaUz70SRL5M,ROOFTOP,"4.6797097,-74.0534596"
"624",EDS_ANTARES_TEXACO,TEXACO,BOGOT�,CUNDINAMARCA,CARRERA 25 NO. 75-201,COLOMBIA,"0",OK,"Cra. 25 #75, Bogotá, Colombia",ChIJGQJ9nVGaP44Rfw2NCjfCFQo,ROOFTOP,"4.659085999999999,-74.07025399999999"
"625",EDS_GAZEL_LA_MARIANA,GAZEL,BOGOT�,CUNDINAMARCA,AVENIDA LAS AM�RICAS LOTE B2 NARANJITO. PEREIRA,COLOMBIA,"0",OK,"Naranjito, Puerto Rico",ChIJraVLh1o_A4wRzDrtHSHnAqs,APPROXIMATE,"18.3007861,-66.2448904"
"634",EDS_CALLE_13,YESID HERNANDEZ QUINTERO,BOGOT�,CUNDINAMARCA,CALLE 71 NO. 21-110 BARRIO LA LIBERTAD,COLOMBIA,"0",OK,"Cl. 71 #21, Bogotá, Colombia",ChIJXRcc1VaaP44R96GyD_EuhmM,ROOFTOP,"4.661646,-74.068364"
"639",ESTACION DE SERVICIO AUTOMOTRIZ MILENIUM GAS CALLE 13,MOVILGAS LTDA - GERARDO JAVIER,BOGOTA,CUNDINAMARCA,AVENIDA CALLE 17 NO. 78G - 11,COLOMBIA,"0",OK,"Ac. 17 #78g-11, Bogotá, Colombia",EiFBYy4gMTcgIzc4Zy0xMSwgQm9nb3TDoSwgQ29sb21iaWEiGhIYChQKEglRld9EcZw_jhEGsgcC1TuITRAL,RANGE_INTERPOLATED,"4.6537765,-74.1308501"
"640",EDS_JUAN_MARTIN_,SERVINGENIERIA S.A.,BOGOT�,CUNDINAMARCA,CLLE 46 F SUR NO. 39-64 TEL 2767382 EDE ZEUS RETORNO  SIETE VIA AUTOPISTA,COLOMBIA,"0",OK,"Bogota, Colombia",ChIJKcumLf2bP44RFDmjIFVjnSM,APPROXIMATE,"4.710988599999999,-74.072092"
"648",EDS FONTIBON,SIGURGAS,BOGOT�,CUNDINAMARCA,CARRERA 45 NO. 58-21,COLOMBIA,"0",OK,"Cra 45 #58-21, Bogotá, Colombia",EiBDcmEgNDUgIzU4LTIxLCBCb2dvdMOhLCBDb2xvbWJpYSIaEhgKFAoSCTkugnu2mz-OES7kssF0MXVkEBU,RANGE_INTERPOLATED,"4.6489892,-74.0836173"
"668",EDS CALLE 13,GNE SOLUCIONES SAS,BOGOT�,CUNDINAMARCA,CARRERA 88 No. 17 - 09,COLOMBIA,"0",OK,"Cra. 88 #17-09, Bogotá, Cundinamarca, Colombia",ChIJnSfYyhmdP44RPFULldYXNMg,ROOFTOP,"4.6617974,-74.1378446"
"679",EDS GNV LA 17,STANDARD ENERGY  COMPANY  -,BOGOT�,CUNDINAMARCA,CARRERA 27 N� 16 - 51 SUR,COLOMBIA,"0",OK,"Cra. 27 #16, Bogotá, Colombia",ChIJg65dTiGZP44RtxJNe6pbUHA,ROOFTOP,"4.5918483,-74.10589580000001"
"685",EDS PATIOS,M JUAN MARTIN LTDA,BOGOT�,CUNDINAMARCA,KM 6 VIA LA CALERA,COLOMBIA,"0",OK,"Bogotá - La Calera #Km. 6, Bogotá, Colombia",ChIJ177-AYSRP44RKbRp3Xycrhc,ROOFTOP,"4.6662237,-74.01411709999999"
"689",EDS GNV LA SIBERIA,PETROLMIL,BOGOT�,CUNDINAMARCA,CRA 498No. 103B -81 / PBX: (57-1) 61701 73 - 61701 74 FAX: (57-1) 61701 66 ERNAIL:,COLOMBIA,"0",OK,"Cl. 57, Bogotá, Colombia",ChIJy5IrhUqaP44RBth6P0rd01o,GEOMETRIC_CENTER,"4.645548,-74.0741491"
"703",EDS TRIANGULO,TRANSAGA S.A.S,BOGOT�,CUNDINAMARCA,CALLE 16 NO 1-26,COLOMBIA,"0",OK,"Bogota, Colombia",ChIJKcumLf2bP44RFDmjIFVjnSM,APPROXIMATE,"4.710988599999999,-74.072092"
"705",EDS 7 DE AGOSTO,COLOMBIANA DE HIDROCARBUROS,BOGOT�,CUNDINAMARCA,AV. CALLE 71 SUR NO 31-40.,COLOMBIA,"0",OK,"Cl. 71 Sur #3-1, Bogotá, Colombia",EiJDbC4gNzEgU3VyICMzLTEsIEJvZ290w6EsIENvbG9tYmlhIhoSGAoUChIJV2Ia-SaiP44RdGwp0_FvbpQQAQ,RANGE_INTERPOLATED,"4.5209262,-74.12039519999999"
"718",EDS SODEN,MADIGAS HIDROCARBUROS S.A.,BOGOT�,CUNDINAMARCA,CARRERA 9 No. 56N-115,COLOMBIA,"0",OK,"Cra. 9 ##21-56, Chía, Cundinamarca, Colombia",ChIJo__5LnV4QI4Rqz16IcnQP5A,ROOFTOP,"4.8681776,-74.0539945"
"720",EDS GERMANIA,GAS NATURAL FENOSA,BOGOT�,CUNDINAMARCA,CON NOMENCLATURA - CARRETERA TRONCAL DE OCCIDENTE,COLOMBIA,"0",OK,"Av Troncal de Occidente 20-85, Mosquera, Cundinamarca, Colombia",ChIJlWlhQxZ4P44R0trVc3rvTgQ,GEOMETRIC_CENTER,"4.7203872,-74.24114089999999"
"721",EDS ESSO 37,GAS NATURAL FENOSA,BOGOT�,CUNDINAMARCA,CRA 7A NO. 26-25,COLOMBIA,"0",OK,"Cra. 7a ##140-26, Bogotá, Cundinamarca, Colombia",ChIJb-wn5vePP44RmpmVduCT0Ak,ROOFTOP,"4.7165818,-74.0292819"
"722",EDS BARRIO COLOMBIA,GAS NATURAL FENOSA,BOGOT�,CUNDINAMARCA,"CARRETERA EL VIAJANO - SAN MARCOS, KM. 11,6 CORREGIMIENTO EL CRUCERO, EN",COLOMBIA,"0",OK,"El Viajano - San Marcos, El Crucero, Sahagún, Córdoba, Colombia",EkFFbCBWaWFqYW5vIC0gU2FuIE1hcmNvcywgRWwgQ3J1Y2VybywgU2FoYWfDum4sIEPDs3Jkb2JhLCBDb2xvbWJpYSIuKiwKFAoSCcED0p5ixluOEd2lNBKq5NIlEhQKEgn_Se_RZMFbjhEd9JnH_znMYw,GEOMETRIC_CENTER,"8.6312903,-75.39728319999999"
"733",ESTACION DE SERVICIO AUTOMOTRIZ TERPEL FONTIBON,ORGANIZACI�N TERPEL S.A.,BOGOT�,CUNDINAMARCA,CALLE22 N 98A 03 FONTIBON,COLOMBIA,"0",OK,"Cl. 22 #98A-03, Fontibón, Bogotá, Colombia",ChIJL-U9Yo6cP44RX7OHjgLZ92A,ROOFTOP,"4.6757697,-74.1405782"
"734",EDS TERPEL AV BOYACA,ORGANIZACI�N TERPEL S.A.,BOGOT�,CUNDINAMARCA,AVENIDA BOYACA 77 A - 15,COLOMBIA,"0",OK,"Av. Boyacá #77a-15, Bogotá, Colombia",EiZBdi4gQm95YWPDoSAjNzdhLTE1LCBCb2dvdMOhLCBDb2xvbWJpYSIaEhgKFAoSCXdUeAs7mz-OESr9l7J6ELuUEA8,RANGE_INTERPOLATED,"4.6935465,-74.091399"
"735",CARREFOUR ALAMOS,ORGANIZACI�N TERPEL S.A.,BOGOT�,CUNDINAMARCA,AV 72 N. 91A-45,COLOMBIA,"0",OK,"Cl. 72 #91a-45, Bogotá, Colombia",EiFDbC4gNzIgIzkxYS00NSwgQm9nb3TDoSwgQ29sb21iaWEiGhIYChQKEgm3MHW4T5s_jhE8MTK7FiokFxAt,RANGE_INTERPOLATED,"4.6993333,-74.1108818"
"748",ESTACION DE SERVICIO LA ISABELA,JUAN MARTIN LTDA,BOGOT�,CUNDINAMARCA,DIAGONAL 63 F No. 86-34 localidad de Engativ a,COLOMBIA,"0",OK,"Dg. 63f #86-34, Bogotá, Colombia",EiFEZy4gNjNmICM4Ni0zNCwgQm9nb3TDoSwgQ29sb21iaWEiGhIYChQKEgkz0A23Z5s_jhEgA3LehSGKHRAi,RANGE_INTERPOLATED,"4.6852563,-74.1138756"
"752",ESTACION DE SERVICIO TEXACO 7 DE AGOSTO DISTRILUB LTDA,,BOGOTA,CUNDINAMARCA,CARRERA 15 No. 67 - 49,COLOMBIA,"0",OK,"Cra. 15 #67-49, Bogotá, Colombia",ChIJy0TNW0WaP44Rv8MBAcFwTuw,ROOFTOP,"4.6556938,-74.06484569999999"
"753",ESTACIO DE SERVICIO INCONCENTRO CALLE 49,GRUPO AUTOMOTRIZ EDS AUTOGAS S.A.,BOGOTA,CUNDINAMARCA,CARRERA 14 No 48 - 74  (Chapinero),COLOMBIA,"0",OK,"Cra. 14 ##9-48, Bogotá, Colombia",ChIJJ4Yu6GebP44RXuae3ug75jk,ROOFTOP,"4.6791158,-74.0493547"
"758",ESTACION DE SERVICIO CALLE 80 - COMBUSTIBLES CAPITAL S.A.S,COMBUSTIBLES CAPITAL S.A.S.,BOGOTA,CUNDINAMARCA,DIAG 77 A No. 90- 26,COLOMBIA,"0",OK,"Cl. 77a #90-26, Bogotá, Colombia",EiFDbC4gNzdhICM5MC0yNiwgQm9nb3TDoSwgQ29sb21iaWEiGhIYChQKEgm_ZOeiS5s_jhFiyP2WP3DM-RAa,RANGE_INTERPOLATED,"4.7042494,-74.1047356"
"759",ESTACION DE SERVICIO AUTOMOTRIZ EGAS AVE BOYACA,ENERGIA DE GAS S.A.S.,BOGOTA,CUNDINAMARCA,AC 71 SUR No. 31-40,COLOMBIA,"0",OK,"Cl. 71 Sur #3-1, Bogotá, Colombia",EiJDbC4gNzEgU3VyICMzLTEsIEJvZ290w6EsIENvbG9tYmlhIhoSGAoUChIJV2Ia-SaiP44RdGwp0_FvbpQQAQ,RANGE_INTERPOLATED,"4.5209262,-74.12039519999999"
"765",ESTACION DE SERVICIO MILENIUM GAS KENNEDY,GERARDO JAVIER ALVARADO CUBILLOS,BOGOTA,CUNDINAMARCA,AVENIDA CALLE 43 SUR No. 78N-05,COLOMBIA,"0",OK,"Av Cd de Villavicencio #78n-5, Bogotá, Colombia",EjBBdiBDZCBkZSBWaWxsYXZpY2VuY2lvICM3OG4tNSwgQm9nb3TDoSwgQ29sb21iaWEiGhIYChQKEgkXEXpHj54_jhHag5V-1Rc1SBAF,RANGE_INTERPOLATED,"4.6173224,-74.1639341"
"773",EDS LA ESTANCIA,UNIGAS S.A.S.,BOGOTA,CUNDINAMARCA,Autopista Sur No. 75-21,COLOMBIA,"0",OK,"Autopista Sur #7-5, Soacha, Cundinamarca, Colombia",EjJBdXRvcGlzdGEgU3VyICM3LTUsIFNvYWNoYSwgQ3VuZGluYW1hcmNhLCBDb2xvbWJpYSIaEhgKFAoSCX2rjO1jdT-OEQmeD2PZC-MkEAU,RANGE_INTERPOLATED,"4.5762442,-74.2230738"
